OBJECT_NAME,OBJECT_ID,EPOCH,MEAN_MOTION,ECCENTRICITY,INCLINATION,RA_OF_ASC_NODE,ARG_OF_PERICENTER,MEAN_ANOMALY,EPHEMERIS_TYPE,CLASSIFICATION_TYPE,NORAD_CAT_ID,ELEMENT_SET_NO,REV_AT_EPOCH,BSTAR,MEAN_MOTION_DOT,MEAN_MOTION_DDOT
INTELSAT 23 (IS-23),2012-057A,2026-06-27T05:24:38.385792,1.00271309,.00002351,0.0109,34.9118,124.4833,144.0919,0,U,38867,999,5005,0,-.273E-5,0
FM-6,2013-058A,2026-06-27T05:06:35.875872,1.00270137,.00017058,0.0169,42.9683,137.1399,55.5624,0,U,39360,999,4617,0,-.4E-7,0
INTELSAT 30 (IS-30),2014-062A,2026-06-27T05:58:01.332192,1.00270749,.00014973,0.0238,49.7665,350.6451,229.4022,0,U,40271,999,689,0,-.139E-5,0
DIRECTV 14,2014-078B,2026-06-27T05:11:27.908736,1.00270994,.00002735,0.0108,19.8815,22.1858,211.8915,0,U,40333,999,4214,0,-.114E-5,0
DIRECTV 15,2015-026A,2026-06-27T06:40:57.711072,1.00270753,.00004737,0.0171,59.1244,26.3791,187.2525,0,U,40663,999,4056,0,-.91E-6,0
SKY MEXICO-1,2015-026B,2026-06-27T04:33:38.624832,1.00272001,.0002591,0.0154,341.9092,130.6397,152.3678,0,U,40664,999,4055,0,-.223E-5,0
INTELSAT 34 (IS-34),2015-039A,2026-06-27T05:23:53.457792,1.00275995,.00007722,0.0108,12.1742,29.5641,259.0762,0,U,40874,999,3973,0,-.274E-5,0
INTELSAT 31 (IS-31),2016-035A,2026-06-27T05:58:01.351200,1.00271675,.0000602,0.0144,289.9489,334.4134,5.4535,0,U,41581,999,3678,0,-.139E-5,0
INTELSAT 36 (IS-36),2016-053A,2026-06-26T20:19:51.545568,1.00266822,.00017395,0.0108,13.4633,328.7334,306.2396,0,U,41747,999,3605,0,-.12E-6,0
INTELSAT 32E (IS-32E),2017-007B,2026-06-27T03:44:50.132256,1.00270867,.00005898,0.0065,35.0163,325.5426,287.7361,0,U,41945,999,3432,0,-.257E-5,0
INTELSAT 35E (IS-35E),2017-041A,2026-06-27T05:38:00.322944,1.00269079,.00023925,0.0278,25.1749,72.4170,227.7690,0,U,42818,999,3291,0,0,0
INTELSAT 37E (IS-37E),2017-059A,2026-06-27T03:51:56.949984,1.00271499,.00028933,0.0043,88.3882,6.2338,220.6422,0,U,42950,999,3216,0,-.129E-5,0
AZERSPACE 2 (IS-38),2018-074A,2026-06-27T04:09:55.227168,1.00270667,.00017092,0.0274,17.8346,80.2276,284.8179,0,U,43632,999,2854,0,0,0
HORIZONS-3E,2018-074B,2026-06-26T21:54:40.856832,1.00268864,.0000627,0.0051,291.0865,17.8683,103.7557,0,U,43633,999,2843,0,-.19E-6,0
AT&T T-16,2019-034A,2026-06-27T05:10:57.957312,1.00270236,.00003702,0.0175,59.8481,275.1280,277.2365,0,U,44333,999,2573,0,-.103E-5,0
INTELSAT 39 (IS-39),2019-049B,2026-06-27T04:14:39.772608,1.00270156,.00008954,0.0261,10.2979,340.7590,49.8511,0,U,44476,999,2522,0,0,0
GALAXY 30 (G-30),2020-056C,2026-06-27T07:01:57.812736,1.00270950,.00023051,0.0279,22.3418,72.1617,161.3777,0,U,46114,999,2139,0,0,0
GALAXY 33 (G-33),2022-128A,2026-06-27T06:42:16.578720,1.00271681,.00020771,0.0044,1.4515,90.5457,150.9618,0,U,54026,999,1384,0,.91E-6,0
GALAXY 34 (G-34),2022-128B,2026-06-27T06:31:34.458240,1.00267054,.00019445,0.0111,43.1970,59.8712,141.1998,0,U,54027,999,1401,0,.71E-6,0
GALAXY 31 (G-31),2022-153A,2026-06-27T05:05:13.508160,1.00270016,.00016588,0.0200,27.2429,74.1270,129.2578,0,U,54243,999,723,0,0,0
GALAXY 32 (G-32),2022-153B,2026-06-27T03:31:11.469792,1.00271923,.00020703,0.0132,33.1835,14.2142,189.6632,0,U,54244,999,1324,0,-.163E-5,0
GALAXY 35 (G-35),2022-170A,2026-06-27T06:51:28.838880,1.00269498,.00022286,0.0196,14.7781,80.7780,189.6024,0,U,54741,999,1299,0,0,0
GALAXY 36 (G-36),2022-170B,2026-06-27T03:31:41.422080,1.00271496,.00028872,0.0347,120.3355,328.9772,149.8739,0,U,54742,999,1287,0,-.174E-5,0
GALAXY 37 (G-37),2023-112A,2026-06-27T05:03:36.163008,1.00272000,.00022562,0.0160,54.5707,38.7838,130.8704,0,U,57493,999,1064,0,.6E-6,0
